[
  {
    "name": "ONEWEB-0001",
    "noradId": "47000",
    "line1": "1 47000U 2447000A 26146.73761574  .00001408  00000-0  15000-3 0  9999",
    "line2": "2 47000  87.4000   4.8952 0001000   0.0000 230.3999 13.16009679   121"
  },
  {
    "name": "ONEWEB-0002",
    "noradId": "47001",
    "line1": "1 47001U 2447001A 26146.73761574  .00001408  00000-0  15000-3 0  9991",
    "line2": "2 47001  87.4000  24.5695 0001000   0.0000 246.4611 13.16009679   124"
  },
  {
    "name": "ONEWEB-0003",
    "noradId": "47002",
    "line1": "1 47002U 2447002A 26146.73761574  .00001408  00000-0  15000-3 0  9993",
    "line2": "2 47002  87.4000  51.4285 0001000   0.0000 279.3600 13.16009679   122"
  },
  {
    "name": "ONEWEB-0004",
    "noradId": "47003",
    "line1": "1 47003U 2447003A 26146.73761574  .00001408  00000-0  15000-3 0  9995",
    "line2": "2 47003  87.4000  69.2905 0001000   0.0000  11.5561 13.16009679   121"
  },
  {
    "name": "ONEWEB-0005",
    "noradId": "47004",
    "line1": "1 47004U 2447004A 26146.73761574  .00001408  00000-0  15000-3 0  9997",
    "line2": "2 47004  87.4000  94.1545 0001000   0.0000  96.3867 13.16009679   129"
  },
  {
    "name": "ONEWEB-0006",
    "noradId": "47005",
    "line1": "1 47005U 2447005A 26146.73761574  .00001408  00000-0  15000-3 0  9999",
    "line2": "2 47005  87.4000 117.1098 0001000   0.0000 339.4475 13.16009679   125"
  },
  {
    "name": "ONEWEB-0007",
    "noradId": "47006",
    "line1": "1 47006U 2447006A 26146.73761574  .00001408  00000-0  15000-3 0  9991",
    "line2": "2 47006  87.4000 147.7637 0001000   0.0000 113.2840 13.16009679   128"
  },
  {
    "name": "ONEWEB-0008",
    "noradId": "47007",
    "line1": "1 47007U 2447007A 26146.73761574  .00001408  00000-0  15000-3 0  9993",
    "line2": "2 47007  87.4000 169.5544 0001000   0.0000 142.4275 13.16009679   124"
  },
  {
    "name": "ONEWEB-0009",
    "noradId": "47008",
    "line1": "1 47008U 2447008A 26146.73761574  .00001408  00000-0  15000-3 0  9995",
    "line2": "2 47008  87.4000 196.1455 0001000   0.0000 165.1867 13.16009679   121"
  },
  {
    "name": "ONEWEB-0010",
    "noradId": "47009",
    "line1": "1 47009U 2447009A 26146.73761574  .00001408  00000-0  15000-3 0  9997",
    "line2": "2 47009  87.4000 213.6488 0001000   0.0000  88.7859 13.16009679   124"
  },
  {
    "name": "ONEWEB-0011",
    "noradId": "47010",
    "line1": "1 47010U 2447010A 26146.73761574  .00001408  00000-0  15000-3 0  9991",
    "line2": "2 47010  87.4000 240.6137 0001000   0.0000  94.5870 13.16009679   125"
  },
  {
    "name": "ONEWEB-0012",
    "noradId": "47011",
    "line1": "1 47011U 2447011A 26146.73761574  .00001408  00000-0  15000-3 0  9993",
    "line2": "2 47011  87.4000 264.8459 0001000   0.0000 323.2162 13.16009679   127"
  },
  {
    "name": "ONEWEB-0013",
    "noradId": "47012",
    "line1": "1 47012U 2447012A 26146.73761574  .00001408  00000-0  15000-3 0  9995",
    "line2": "2 47012  87.4000 286.9940 0001000   0.0000  78.9555 13.16009679   128"
  },
  {
    "name": "ONEWEB-0014",
    "noradId": "47013",
    "line1": "1 47013U 2447013A 26146.73761574  .00001408  00000-0  15000-3 0  9997",
    "line2": "2 47013  87.4000 316.9754 0001000   0.0000 183.4295 13.16009679   129"
  },
  {
    "name": "ONEWEB-0015",
    "noradId": "47014",
    "line1": "1 47014U 2447014A 26146.73761574  .00001408  00000-0  15000-3 0  9999",
    "line2": "2 47014  87.4000 331.9091 0001000   0.0000  16.9619 13.16009679   121"
  }
]